$$SOE
2460721.500000000, A.D. 2025-Feb-15 00:00:00.0000, 4.522209766661345E+08, -3.556811441073648E+07, 5.048967987967527E+07,
2460728.500000000, A.D. 2025-Feb-22 00:00:00.0000, 4.529111312107207E+08, -2.543552528965335E+07, 5.150185952166119E+07,
2460735.500000000, A.D. 2025-Mar-01 00:00:00.0000, 4.533702211431751E+08, -1.528999479366890E+07, 5.248776114923194E+07,
2460742.500000000, A.D. 2025-Mar-08 00:00:00.0000, 4.535981898865601E+08, -5.136704024287242E+06, 5.344690165953230E+07,
2460749.500000000, A.D. 2025-Mar-15 00:00:00.0000, 4.535950923890761E+08, 5.019171614910448E+06, 5.437881145235159E+07,
2460756.500000000, A.D. 2025-Mar-22 00:00:00.0000, 4.533610925386924E+08, 1.517246497404119E+07, 5.528303482793707E+07,
2460763.500000000, A.D. 2025-Mar-29 00:00:00.0000, 4.528964619186068E+08, 2.531801744102702E+07, 5.615913007125408E+07,
2460770.500000000, A.D. 2025-Apr-05 00:00:00.0000, 4.522015802276990E+08, 3.545068009268333E+07, 5.700666944865116E+07,
2460777.500000000, A.D. 2025-Apr-12 00:00:00.0000, 4.512769354403576E+08, 4.556531581778044E+07, 5.782523930184115E+07,
2460784.500000000, A.D. 2025-Apr-19 00:00:00.0000, 4.501231235194107E+08, 5.565680153136489E+07, 5.861444018425450E+07,
2460791.500000000, A.D. 2025-Apr-26 00:00:00.0000, 4.487408479545667E+08, 6.572003027783054E+07, 5.937388699812923E+07,
2460798.500000000, A.D. 2025-May-03 00:00:00.0000, 4.471309192406058E+08, 7.574991324250984E+07, 6.010320912335782E+07,
2460805.500000000, A.D. 2025-May-10 00:00:00.0000, 4.452942543244697E+08, 8.574138168110842E+07, 6.080205053611144E+07,
2460812.500000000, A.D. 2025-May-17 00:00:00.0000, 4.432318760586516E+08, 9.568938872660609E+07, 6.147006991054588E+07,
2460819.500000000, A.D. 2025-May-24 00:00:00.0000, 4.409449128356217E+08, 1.055889110195466E+08, 6.210694068325911E+07,
2460826.500000000, A.D. 2025-May-31 00:00:00.0000, 4.384345988212273E+08, 1.154349504724945E+08, 6.271235106742903E+07,
2460833.500000000, A.D. 2025-Jun-07 00:00:00.0000, 4.357022743847235E+08, 1.252225373737953E+08, 6.328600415140740E+07,
2460840.500000000, A.D. 2025-Jun-14 00:00:00.0000, 4.327493843609079E+08, 1.349467341661214E+08, 6.382761824451034E+07,
2460847.500000000, A.D. 2025-Jun-21 00:00:00.0000, 4.295774753642470E+08, 1.446026366295479E+08, 6.433692709204774E+07,
2460854.500000000, A.D. 2025-Jun-28 00:00:00.0000, 4.261881952839608E+08, 1.541853742328794E+08, 6.481367981685702E+07,
2460861.500000000, A.D. 2025-Jul-05 00:00:00.0000, 4.225832934423817E+08, 1.636901118098846E+08, 6.525764090247672E+07,
2460868.500000000, A.D. 2025-Jul-12 00:00:00.0000, 4.187646202258242E+08, 1.731120517557943E+08, 6.566859026163018E+07,
2460875.500000000, A.D. 2025-Jul-19 00:00:00.0000, 4.147341263781620E+08, 1.824464361690272E+08, 6.604632332585725E+07,
2460882.500000000, A.D. 2025-Jul-26 00:00:00.0000, 4.104938621670477E+08, 1.916885488810061E+08, 6.639065113233642E+07,
2460889.500000000, A.D. 2025-Aug-02 00:00:00.0000, 4.060459764872040E+08, 2.008337173950564E+08, 6.670140040327301E+07,
2460896.500000000, A.D. 2025-Aug-09 00:00:00.0000, 4.013927159225129E+08, 2.098773147197888E+08, 6.697841361402734E+07,
2460903.500000000, A.D. 2025-Aug-16 00:00:00.0000, 3.965364238423536E+08, 2.188147610350105E+08, 6.722154903760770E+07,
2460910.500000000, A.D. 2025-Aug-23 00:00:00.0000, 3.914795398246838E+08, 2.276415252087030E+08, 6.743068074050240E+07,
2460917.500000000, A.D. 2025-Aug-30 00:00:00.0000, 3.862245997356818E+08, 2.363531268802827E+08, 6.760569855868696E+07,
2460924.500000000, A.D. 2025-Sep-06 00:00:00.0000, 3.807742350474088E+08, 2.449451401107028E+08, 6.774650826597208E+07,
2460931.500000000, A.D. 2025-Sep-13 00:00:00.0000, 3.751311697231022E+08, 2.534131961186171E+08, 6.785303188606815E+07,
2460938.500000000, A.D. 2025-Sep-20 00:00:00.0000, 3.692982179466825E+08, 2.617529834592512E+08, 6.792520771500798E+07,
2460945.500000000, A.D. 2025-Sep-27 00:00:00.0000, 3.632782837556624E+08, 2.699602487558308E+08, 6.796299021096943E+07,
2460952.500000000, A.D. 2025-Oct-04 00:00:00.0000, 3.570743605591894E+08, 2.780307985219851E+08, 6.796634998015361E+07,
2460959.500000000, A.D. 2025-Oct-11 00:00:00.0000, 3.506895301667192E+08, 2.859605011323176E+08, 6.793527381588095E+07,
2460966.500000000, A.D. 2025-Oct-18 00:00:00.0000, 3.441269616106091E+08, 2.937452886668939E+08, 6.786976474240890E+07,
2460973.500000000, A.D. 2025-Oct-25 00:00:00.0000, 3.373899099017122E+08, 3.013811586406243E+08, 6.776984205136766E+07,
2460980.500000000, A.D. 2025-Nov-01 00:00:00.0000, 3.304817147567120E+08, 3.088641756329083E+08, 6.763554132810275E+07,
2460987.500000000, A.D. 2025-Nov-08 00:00:00.0000, 3.234057993307706E+08, 3.161904727860875E+08, 6.746691446172325E+07,
2460994.500000000, A.D. 2025-Nov-15 00:00:00.0000, 3.161656691022677E+08, 3.233562531144748E+08, 6.726402962006201E+07,
2461001.500000000, A.D. 2025-Nov-22 00:00:00.0000, 3.087649113116768E+08, 3.303577908447669E+08, 6.702697117027983E+07,
2461008.500000000, A.D. 2025-Nov-29 00:00:00.0000, 3.012071948009496E+08, 3.371914339227141E+08, 6.675583965141399E+07,
2461015.500000000, A.D. 2025-Dec-06 00:00:00.0000, 2.934962679735628E+08, 3.438536075491107E+08, 6.645075199583639E+07,
2461022.500000000, A.D. 2025-Dec-13 00:00:00.0000, 2.856359553070102E+08, 3.503408153771704E+08, 6.611184168478589E+07,
2461029.500000000, A.D. 2025-Dec-20 00:00:00.0000, 2.776301559131969E+08, 3.566496393970092E+08, 6.573925860202384E+07,
2461036.500000000, A.D. 2025-Dec-27 00:00:00.0000, 2.694828430738116E+08, 3.627767410976930E+08, 6.533316889562015E+07,
2461043.500000000, A.D. 2026-Jan-03 00:00:00.0000, 2.611980632905056E+08, 3.687188632906638E+08, 6.489375493111116E+07,
2461050.500000000, A.D. 2026-Jan-10 00:00:00.0000, 2.527799349590436E+08, 3.744728319158951E+08, 6.442121527046944E+07,
2461057.500000000, A.D. 2026-Jan-17 00:00:00.0000, 2.442326468996044E+08, 3.800355577395390E+08, 6.391576464806256E+07,
2461064.500000000, A.D. 2026-Jan-24 00:00:00.0000, 2.355604568206757E+08, 3.854040379660006E+08, 6.337763393826175E+07,
2461071.500000000, A.D. 2026-Jan-31 00:00:00.0000, 2.267676897393496E+08, 3.905753577572951E+08, 6.280707011188224E+07,
2461078.500000000, A.D. 2026-Feb-07 00:00:00.0000, 2.178587364187720E+08, 3.955466916026861E+08, 6.220433617110044E+07,
2461085.500000000, A.D. 2026-Feb-14 00:00:00.0000, 2.088380520750644E+08, 4.003153045239438E+08, 6.156971103844637E+07,
2461092.500000000, A.D. 2026-Feb-21 00:00:00.0000, 1.997101557411222E+08, 4.048785536942354E+08, 6.090348941165549E+07,
2461099.500000000, A.D. 2026-Feb-28 00:00:00.0000, 1.904796292029032E+08, 4.092338916236888E+08, 6.020598177797887E+07,
2461106.500000000, A.D. 2026-Mar-07 00:00:00.0000, 1.811511134478499E+08, 4.133788689590821E+08, 5.947751461682171E+07,
2461113.500000000, A.D. 2026-Mar-14 00:00:00.0000, 1.717293053988075E+08, 4.173111345659661E+08, 5.871843034595063E+07,
2461120.500000000, A.D. 2026-Mar-21 00:00:00.0000, 1.622189567179644E+08, 4.210284357932858E+08, 5.792908708521676E+07,
2461127.500000000, A.D. 2026-Mar-28 00:00:00.0000, 1.526248726725807E+08, 4.245286199474068E+08, 5.710985850585073E+07,
2461134.500000000, A.D. 2026-Apr-04 00:00:00.0000, 1.429519104584905E+08, 4.278096360074208E+08, 5.626113374138081E+07,
2461141.500000000, A.D. 2026-Apr-11 00:00:00.0000, 1.332049772548834E+08, 4.308695362192671E+08, 5.538331730522859E+07,
2461148.500000000, A.D. 2026-Apr-18 00:00:00.0000, 1.233890281687550E+08, 4.337064775590866E+08, 5.447682899934402E+07,
2461155.500000000, A.D. 2026-Apr-25 00:00:00.0000, 1.135090641131772E+08, 4.363187230780236E+08, 5.354210381058002E+07,
2461162.500000000, A.D. 2026-May-02 00:00:00.0000, 1.035701296482133E+08, 4.387046430977399E+08, 5.257959178972384E+07,
2461169.500000000, A.D. 2026-May-09 00:00:00.0000, 9.357731090797299E+07, 4.408627161907643E+08, 5.158975789691511E+07,
2461176.500000000, A.D. 2026-May-16 00:00:00.0000, 8.353573399184957E+07, 4.427915300851920E+08, 5.057308179077965E+07,
2461183.500000000, A.D. 2026-May-23 00:00:00.0000, 7.345056387317497E+07, 4.444897835174029E+08, 4.953005764054796E+07,
2461190.500000000, A.D. 2026-May-30 00:00:00.0000, 6.332700174940427E+07, 4.459562893512827E+08, 4.846119417764050E+07,
2461197.500000000, A.D. 2026-Jun-06 00:00:00.0000, 5.317028051658352E+07, 4.471899756856342E+08, 4.736701474746746E+07,
2461204.500000000, A.D. 2026-Jun-13 00:00:00.0000, 4.298566203198262E+07, 4.481898851476137E+08, 4.624805704136553E+07,
2461211.500000000, A.D. 2026-Jun-20 00:00:00.0000, 3.277843566477946E+07, 4.489551752990518E+08, 4.510487279358172E+07,
2461218.500000000, A.D. 2026-Jun-27 00:00:00.0000, 2.255391643736455E+07, 4.494851198132544E+08, 4.393802757056385E+07,
2461225.500000000, A.D. 2026-Jul-04 00:00:00.0000, 1.231744275679000E+07, 4.497791096446155E+08, 4.274810058862114E+07,
2461232.500000000, A.D. 2026-Jul-11 00:00:00.0000, 2.074373989945909E+06, 4.498366540571964E+08, 4.153568452543864E+07,
2461239.500000000, A.D. 2026-Jul-18 00:00:00.0000, -8.169912024874160E+06, 4.496573815363142E+08, 4.030138531865117E+07,
2461246.500000000, A.D. 2026-Jul-25 00:00:00.0000, -1.841002150545066E+07, 4.492410405841399E+08, 3.904582194909722E+07,
2461253.500000000, A.D. 2026-Aug-01 00:00:00.0000, -2.864054724384852E+07, 4.485875003493705E+08, 3.776962620008904E+07,
2461260.500000000, A.D. 2026-Aug-08 00:00:00.0000, -3.885607090030722E+07, 4.476967510532312E+08, 3.647344236980411E+07,
2461267.500000000, A.D. 2026-Aug-15 00:00:00.0000, -4.905116465780408E+07, 4.465689046607099E+08, 3.515792693539083E+07,
2461274.500000000, A.D. 2026-Aug-22 00:00:00.0000, -5.922039299799598E+07, 4.452041970179499E+08, 3.382374833831918E+07,
2461281.500000000, A.D. 2026-Aug-29 00:00:00.0000, -6.935831688550134E+07, 4.436029900814353E+08, 3.247158698842049E+07,
2461288.500000000, A.D. 2026-Sep-05 00:00:00.0000, -7.945949822606987E+07, 4.417657713655951E+08, 3.110213505620939E+07,
2461295.500000000, A.D. 2026-Sep-12 00:00:00.0000, -8.951850214544220E+07, 4.396931531030099E+08, 2.971609603250679E+07,
$$EOE